     2.10           N: GPS NAV DATA                         RINEX VERSION / TYPE
teqc  2013Mar15                         20150102 01:19:19UTCPGM / RUN BY / DATE
    1.4901D-08 -7.4506D-09 -5.9605D-08  1.1921D-07          ION ALPHA
    1.2902D+05 -1.9661D+05  6.5536D+04  3.2768D+05          ION BETA
    9.313225746155D-10 8.881784197001D-15   589824     1825 DELTA-UTC: A0,A1,T,W
    16                                                      LEAP SECONDS
Linux 2.4.20-8|Pentium IV|gcc -static|Linux|486/DX+         COMMENT
     2.10           NAVIGATION DATA                         COMMENT
GR25 V3.11          BKG/GOWettzell+DLS  2014 12 31 23:59    COMMENT
                                                            END OF HEADER
31 14 12 31 23 59 44.0 3.263647668064D-04-6.821210263297D-13 0.000000000000D+00
    1.000000000000D+01 5.725000000000D+01 4.476615040414D-09 1.899056080497D+00
    3.190711140633D-06 8.310374454595D-03 2.115964889526D-06 5.153700971603D+03
    3.455840000000D+05 8.195638656616D-08-2.412981720888D+00 5.029141902924D-08
    9.766876622529D-01 3.433750000000D+02-5.859630006253D-01-8.265344284766D-09
   -5.785955293977D-11 1.000000000000D+00 1.825000000000D+03 0.000000000000D+00
    2.000000000000D+00 0.000000000000D+00-1.350417733192D-08 1.000000000000D+01
    3.454800000000D+05
32 14 12 31 16  0  0.0-2.581616863608D-04 8.640199666843D-12 0.000000000000D+00
    3.400000000000D+01-5.250000000000D+00 4.938777148463D-09-1.766054290839D+00
   -3.241002559662D-07 1.137262803968D-02 9.832903742790D-06 5.153598861694D+03
    3.168000000000D+05 9.126961231232D-08 1.827749651189D+00-2.607703208923D-07
    9.467956654970D-01 1.810000000000D+02-1.423558268344D-03-8.184626636837D-09
   -3.314423773340D-10 1.000000000000D+00 1.825000000000D+03 0.000000000000D+00
    2.000000000000D+00 0.000000000000D+00-3.259629011154D-09 3.400000000000D+01
    3.096000000000D+05
 6 15  1  1  2  0  0.0 3.988109529018D-05 9.208633855451D-12 0.000000000000D+00
    4.800000000000D+01 5.218750000000D+00 4.794842581582D-09 1.352496378960D-01
    2.607703208923D-07 5.043536657467D-04 6.029382348061D-06 5.153660556793D+03
    3.528000000000D+05 3.352761268616D-08 6.944422514729D-01-1.676380634308D-08
    9.615395244379D-01 2.654062500000D+02 2.352125936538D+00-8.141053393266D-09
    2.785830326729D-10 1.000000000000D+00 1.825000000000D+03 0.000000000000D+00
    2.000000000000D+00 0.000000000000D+00 4.656612873077D-09 4.800000000000D+01
    3.456000000000D+05
14 15  1  1  2  0  0.0 1.010606065392D-04-3.524291969370D-12 0.000000000000D+00
    8.600000000000D+01 1.105312500000D+02 4.256605876149D-09-6.594202442772D-01
    5.807727575302D-06 7.754959166050D-03 9.665265679359D-06 5.153776906967D+03
    3.528000000000D+05-3.539025783539D-08 2.867353535984D+00 1.266598701477D-07
    9.682577226321D-01 2.012812500000D+02-1.967772615228D+00-8.006047769739D-09
    7.143154683922D-11 1.000000000000D+00 1.825000000000D+03 0.000000000000D+00
    2.000000000000D+00 0.000000000000D+00-9.313225746155D-09 8.600000000000D+01
    3.456000000000D+05
25 15  1  1  2  0  0.0 6.050802767277D-06-2.273736754432D-12 0.000000000000D+00
    7.500000000000D+01-8.387500000000D+01 4.212675474843D-09 1.864050373134D+00
   -4.418194293976D-06 3.945498494431D-03 5.694106221199D-06 5.153746059418D+03
    3.528000000000D+05-1.378357410431D-07-1.398406964417D+00 5.215406417847D-08
    9.774059286973D-01 2.776875000000D+02 6.655339105931D-01-8.047120909172D-09
   -2.571535686212D-10 1.000000000000D+00 1.825000000000D+03 0.000000000000D+00
    2.000000000000D+00 0.000000000000D+00 5.122274160385D-09 7.500000000000D+01
    3.456000000000D+05
31 15  1  1  2  0  0.0 3.263596445322D-04-6.821210263297D-13 0.000000000000D+00
    3.100000000000D+01 5.343750000000D+01 4.486615456971D-09 2.951516735982D+00
    2.907589077950D-06 8.309831144288D-03 2.514570951462D-06 5.153702119827D+03
    3.528000000000D+05-1.024454832077D-07-2.413042034075D+00 1.508742570877D-07
    9.766879197265D-01 3.406250000000D+02-5.859256274571D-01-8.198555788471D-09
    9.714690370133D-11 1.000000000000D+00 1.825000000000D+03 0.000000000000D+00
    2.000000000000D+00 0.000000000000D+00-1.350417733192D-08 3.100000000000D+01
    3.456000000000D+05
12 15  1  1  2  0  0.0 2.578967250884D-04 2.955857780762D-12 0.000000000000D+00
    5.900000000000D+01-8.890625000000D+01 3.832659645658D-09 2.590213194354D+00
   -4.768371582031D-06 5.103597533889D-03 6.070360541344D-06 5.153762205124D+03
    3.528000000000D+05-9.872019290924D-08-1.353455961056D+00-4.470348358154D-08
    9.888193215052D-01 2.759062500000D+02 4.975915631659D-01-7.781752712664D-09
   -2.689397738497D-10 1.000000000000D+00 1.825000000000D+03 0.000000000000D+00
    2.000000000000D+00 0.000000000000D+00-1.210719347000D-08 5.900000000000D+01
    3.456000000000D+05
 2 15  1  1  2  0  0.0 5.391943268478D-04 2.273736754432D-12 0.000000000000D+00
    2.200000000000D+01 8.437500000000D-01 5.155214735386D-09-2.056405805305D+00
    2.980232238770D-08 1.412529207300D-02 5.779787898064D-06 5.153734960556D+03
    3.528000000000D+05 1.378357410431D-07 6.685964008552D-01-1.415610313416D-07
    9.402420748450D-01 2.564062500000D+02-2.348707563658D+00-8.156768333570D-09
    4.382325398586D-10 1.000000000000D+00 1.825000000000D+03 0.000000000000D+00
    2.000000000000D+00 0.000000000000D+00-2.048909664154D-08 2.200000000000D+01
    3.456000000000D+05
29 15  1  1  2  0  0.0 5.831141024828D-04 2.273736754432D-12 0.000000000000D+00
    5.900000000000D+01-3.243750000000D+01 4.041954077897D-09 2.323830877249D+00
   -1.795589923859D-06 1.218384946696D-03 1.040287315845D-05 5.153581123352D+03
    3.528000000000D+05-7.636845111847D-08-2.967911116154D-01 5.774199962616D-08
    9.720765269120D-01 1.845937500000D+02-8.712155141260D-01-7.685320124431D-09
    3.053698627377D-10 1.000000000000D+00 1.825000000000D+03 0.000000000000D+00
    2.000000000000D+00 0.000000000000D+00-9.778887033463D-09 5.900000000000D+01
    3.456000000000D+05
 5 15  1  1  2  0  0.0-2.988195046782D-04 4.888534022029D-12 0.000000000000D+00
    2.000000000000D+00-2.000000000000D+01 4.909133056525D-09 2.605173497876D-01
   -9.592622518539D-07 4.037761013024D-03 8.283182978630D-06 5.153743595123D+03
    3.528000000000D+05 2.793967723846D-08 1.738571967392D+00 6.891787052155D-08
    9.462882655274D-01 2.112500000000D+02 4.214111179903D-01-8.201413050345D-09
   -3.443000557650D-10 1.000000000000D+00 1.825000000000D+03 0.000000000000D+00
    2.000000000000D+00 0.000000000000D+00-1.071020960808D-08 2.000000000000D+00
    3.456000000000D+05
10 15  1  1  2  0  0.0-1.568100415170D-04-1.818989403546D-12 0.000000000000D+00
    7.400000000000D+01-2.137500000000D+01 5.130213693993D-09 5.921045399193D-01
   -1.039355993271D-06 1.448456291109D-02 8.340924978256D-06 5.153644676208D+03
    3.528000000000D+05-2.477318048477D-07 1.754543869989D+00 1.173466444016D-07
    9.410851355162D-01 2.109687500000D+02 9.139467207037D-01-8.420350741407D-09
   -5.039495629507D-10 1.000000000000D+00 1.825000000000D+03 0.000000000000D+00
    2.800000000000D+00 0.000000000000D+00-3.259629011154D-09 7.400000000000D+01
    3.456000000000D+05
24 15  1  1  1 59 44.0-4.100240767002D-05-5.684341886081D-13 0.000000000000D+00
    8.700000000000D+01 5.846875000000D+01 4.892703800752D-09-2.376159995299D+00
    2.965331077576D-06 2.804504591040D-03 2.790242433548D-06 5.153692264557D+03
    3.527840000000D+05 1.862645149231D-09-2.458502716632D+00-9.685754776001D-08
    9.550702432178D-01 3.236250000000D+02 2.310143239310D-01-8.443565994130D-09
    1.210764718925D-10 1.000000000000D+00 1.825000000000D+03 0.000000000000D+00
    2.000000000000D+00 0.000000000000D+00 2.793967723846D-09 8.700000000000D+01
    3.456000000000D+05
21 15  1  1  2  0  0.0-4.035029560328D-04-2.273736754432D-12 0.000000000000D+00
    6.800000000000D+01-3.750000000000D+00 5.350580015992D-09 1.997406153858D+00
   -6.034970283508D-07 2.193777239881D-02 6.081536412239D-06 5.153630901337D+03
    3.528000000000D+05 0.000000000000D+00 6.842933319068D-01-5.345791578293D-07
    9.332398276990D-01 2.476250000000D+02-1.964659654292D+00-8.268558704374D-09
    2.882262914962D-10 1.000000000000D+00 1.825000000000D+03 0.000000000000D+00
    2.000000000000D+00 0.000000000000D+00-1.164153218269D-08 6.800000000000D+01
    3.472200000000D+05
25 15  1  1  4  0  0.0 6.034504622221D-06-2.273736754432D-12 0.000000000000D+00
    8.400000000000D+01-8.340625000000D+01 4.137315192927D-09 2.914033508095D+00
   -4.410743713379D-06 3.944693715312D-03 5.308538675308D-06 5.153747915268D+03
    3.600000000000D+05-7.264316082001D-08-1.398464641426D+00-4.842877388000D-08
    9.774045754981D-01 2.851250000000D+02 6.656845896923D-01-7.960331579762D-09
   -2.321525272275D-10 1.000000000000D+00 1.825000000000D+03 0.000000000000D+00
    2.000000000000D+00 0.000000000000D+00 5.122274160385D-09 8.400000000000D+01
    3.528000000000D+05
31 15  1  1  4  0  0.0 3.263540565968D-04-6.821210263297D-13 0.000000000000D+00
    3.200000000000D+01 5.318750000000D+01 4.460900100109D-09-2.281549915895D+00
    2.913177013397D-06 8.310348843224D-03 2.896413207054D-06 5.153700977325D+03
    3.600000000000D+05-1.527369022369D-07-2.413101010154D+00 4.656612873077D-08
    9.766888794007D-01 3.354375000000D+02-5.858808987368D-01-8.169626012001D-09
    1.292910997790D-10 1.000000000000D+00 1.825000000000D+03 0.000000000000D+00
    2.000000000000D+00 0.000000000000D+00-1.350417733192D-08 3.200000000000D+01
    3.528000000000D+05
